ORBCOMM FM06            
1 25118U 97084G   23347.51948983  .00001218  00000+0  41292-3 0  9993
2 25118  45.0145 127.9210 0000821 303.2998 164.4375 14.41809643361791
ORBCOMM FM04            
1 25159U 98007C   23347.93742693  .00000877  00000+0  37286-3 0  9998
2 25159 107.9733  88.5173 0041729 131.6912 228.7809 14.31844786345242
ORBCOMM FM19            
1 25415U 98046C   23346.90027706  .00000903  00000+0  36297-3 0  9994
2 25415  44.9950 270.0843 0004205   0.0026 112.4253 14.35047765324989
ORBCOMM FM05 [-]        
1 25117U 97084F   23347.47071194  .00001150  00000+0  39202-3 0  9991
2 25117  45.0151 127.9788 0001737 305.6851  54.3837 14.41843244360871
ORBCOMM FM07 [-]        
1 25119U 97084H   23347.48280398  .00001189  00000+0  40448-3 0  9998
2 25119  45.0138 128.5589 0002589 295.6358  64.4225 14.41751956361782
ORBCOMM FM03 [-]        
1 25158U 98007B   23348.20165555  .00000922  00000+0  39084-3 0  9993
2 25158 107.9748  86.2207 0046352 133.1277 227.3751 14.31583403345256
ORBCOMM FM17 [-]        
1 25413U 98046A   23347.98085823  .00000655  00000+0  29044-3 0  9991
2 25413  44.9964 333.6241 0003846 311.4970  48.5546 14.32604604324237
ORBCOMM FM18 [-]        
1 25414U 98046B   23347.90358728  .00000944  00000+0  37624-3 0  9995
2 25414  44.9945 264.1305 0005143  16.6077 343.4937 14.35194564325133
